STARLINK-33700          
1 63484U 25070AA  25144.58335648 -.00022580  00000+0 -81342-3 0  9996
2 63484  43.0016  92.4025 0001457 273.0092  45.4558 15.27582974  6011
STARLINK-33687          
1 63485U 25070AB  25144.58335648 -.00017784  00000+0 -63827-3 0  9995
2 63485  43.0038  92.2038 0001446 271.2434 110.9294 15.27579961  5999
STARLINK-33716          
1 63486U 25070AC  25144.19217318  .00000592  00000+0  31032-4 0  9997
2 63486  43.0030  94.5389 0001173 278.0612  82.0106 15.27573418  8700
STARLINK-33754          
1 63487U 25070AD  25144.91668981  .00000335  00000+0  21712-4 0  9993
2 63487  42.9991  90.7054 0001341 263.3256  12.5610 15.27582240  8790
STARLINK-33828          
1 63493U 25071A   25144.91668981 -.00048530  00000+0 -12096-2 0  9995
2 63493  53.1604  44.9074 0001211  72.3814  12.2382 15.39654843  8592
STARLINK-33819          
1 63494U 25071B   25144.58335648  .00011122  00000+0  28786-3 0  9999
2 63494  53.1602  46.4253 0000880 114.8587 306.9576 15.39594548  6037
STARLINK-33845          
1 63495U 25071C   25144.58335648  .00068716  00000+0  17149-2 0  9991
2 63495  53.1601  46.2679 0001042  82.1389  58.7758 15.39576286  6038
STARLINK-33829          
1 63496U 25071D   25144.91668981 -.00166699  00000+0 -42340-2 0  9990
2 63496  53.1602  44.7500 0000911  88.9556  74.7808 15.39728939  8445
STARLINK-33815          
1 63497U 25071E   25144.58335648  .00001921  00000+0  58020-4 0  9993
2 63497  53.1599  46.2168 0001037  99.6057  67.0683 15.39597582  6030
STARLINK-33833          
1 63498U 25071F   25144.02039820  .00003032  00000+0  85692-4 0  9996
2 63498  53.1612  48.7178 0000745  80.2332 279.8757 15.39634813  8375
STARLINK-33534          
1 63499U 25071G   25144.15454893  .00000858  00000+0  31410-4 0  9994
2 63499  53.1629  48.1337 0000699  76.9216 283.1867 15.39616696  8375
STARLINK-33838          
1 63500U 25071H   25143.88731454 -.00241781  00000+0 -66244-2 0  9992
2 63500  53.1621  49.3079 0008970  77.5799 282.6208 15.37680083  8146
STARLINK-33837          
1 63501U 25071J   25144.15919191  .00001969  00000+0  59174-4 0  9996
2 63501  53.1609  48.1616 0000828  69.5118 290.5976 15.39624501  8333
STARLINK-33818          
1 63502U 25071K   25144.02006886  .00003151  00000+0  88675-4 0  9994
2 63502  53.1619  48.7117 0001078  63.4530 296.6585 15.39636609  8375
