[
  {
    "OBJECT_NAME": "STARLINK-33700",
    "OBJECT_ID": "2025-070AA",
    "EPOCH": "2025-05-24T14:00:01.999872",
    "MEAN_MOTION": 15.27582974,
    "ECCENTRICITY": 0.0001457,
    "INCLINATION": 43.0016,
    "RA_OF_ASC_NODE": 92.4025,
    "ARG_OF_PERICENTER": 273.0092,
    "MEAN_ANOMALY": 45.4558,
    "EPHEMERIS_TYPE": 0,
    "CLASSIFICATION_TYPE": "U",
    "NORAD_CAT_ID": 63484,
    "ELEMENT_SET_NO": 999,
    "REV_AT_EPOCH": 601,
    "BSTAR": -0.00081342,
    "MEAN_MOTION_DOT": -0.0002258,
    "MEAN_MOTION_DDOT": 0
  },
  {
    "OBJECT_NAME": "STARLINK-33687",
    "OBJECT_ID": "2025-070AB",
    "EPOCH": "2025-05-24T14:00:01.999872",
    "MEAN_MOTION": 15.27579961,
    "ECCENTRICITY": 0.0001446,
    "INCLINATION": 43.0038,
    "RA_OF_ASC_NODE": 92.2038,
    "ARG_OF_PERICENTER": 271.2434,
    "MEAN_ANOMALY": 110.9294,
    "EPHEMERIS_TYPE": 0,
    "CLASSIFICATION_TYPE": "U",
    "NORAD_CAT_ID": 63485,
    "ELEMENT_SET_NO": 999,
    "REV_AT_EPOCH": 599,
    "BSTAR": -0.00063827,
    "MEAN_MOTION_DOT": -0.00017784,
    "MEAN_MOTION_DDOT": 0
  },
  {
    "OBJECT_NAME": "STARLINK-33716",
    "OBJECT_ID": "2025-070AC",
    "EPOCH": "2025-05-24T04:36:43.762752",
    "MEAN_MOTION": 15.27573418,
    "ECCENTRICITY": 0.0001173,
    "INCLINATION": 43.003,
    "RA_OF_ASC_NODE": 94.5389,
    "ARG_OF_PERICENTER": 278.0612,
    "MEAN_ANOMALY": 82.0106,
    "EPHEMERIS_TYPE": 0,
    "CLASSIFICATION_TYPE": "U",
    "NORAD_CAT_ID": 63486,
    "ELEMENT_SET_NO": 999,
    "REV_AT_EPOCH": 870,
    "BSTAR": 3.1032e-05,
    "MEAN_MOTION_DOT": 5.92e-06,
    "MEAN_MOTION_DDOT": 0
  },
  {
    "OBJECT_NAME": "STARLINK-33754",
    "OBJECT_ID": "2025-070AD",
    "EPOCH": "2025-05-24T22:00:01.999584",
    "MEAN_MOTION": 15.2758224,
    "ECCENTRICITY": 0.0001341,
    "INCLINATION": 42.9991,
    "RA_OF_ASC_NODE": 90.7054,
    "ARG_OF_PERICENTER": 263.3256,
    "MEAN_ANOMALY": 12.561,
    "EPHEMERIS_TYPE": 0,
    "CLASSIFICATION_TYPE": "U",
    "NORAD_CAT_ID": 63487,
    "ELEMENT_SET_NO": 999,
    "REV_AT_EPOCH": 879,
    "BSTAR": 2.1712e-05,
    "MEAN_MOTION_DOT": 3.35e-06,
    "MEAN_MOTION_DDOT": 0
  },
  {
    "OBJECT_NAME": "STARLINK-33828",
    "OBJECT_ID": "2025-071A",
    "EPOCH": "2025-05-24T22:00:01.999584",
    "MEAN_MOTION": 15.39654843,
    "ECCENTRICITY": 0.0001211,
    "INCLINATION": 53.1604,
    "RA_OF_ASC_NODE": 44.9074,
    "ARG_OF_PERICENTER": 72.3814,
    "MEAN_ANOMALY": 12.2382,
    "EPHEMERIS_TYPE": 0,
    "CLASSIFICATION_TYPE": "U",
    "NORAD_CAT_ID": 63493,
    "ELEMENT_SET_NO": 999,
    "REV_AT_EPOCH": 859,
    "BSTAR": -0.0012096,
    "MEAN_MOTION_DOT": -0.0004853,
    "MEAN_MOTION_DDOT": 0
  },
  {
    "OBJECT_NAME": "STARLINK-33819",
    "OBJECT_ID": "2025-071B",
    "EPOCH": "2025-05-24T14:00:01.999872",
    "MEAN_MOTION": 15.39594548,
    "ECCENTRICITY": 8.8e-05,
    "INCLINATION": 53.1602,
    "RA_OF_ASC_NODE": 46.4253,
    "ARG_OF_PERICENTER": 114.8587,
    "MEAN_ANOMALY": 306.9576,
    "EPHEMERIS_TYPE": 0,
    "CLASSIFICATION_TYPE": "U",
    "NORAD_CAT_ID": 63494,
    "ELEMENT_SET_NO": 999,
    "REV_AT_EPOCH": 603,
    "BSTAR": 0.00028786,
    "MEAN_MOTION_DOT": 0.00011122,
    "MEAN_MOTION_DDOT": 0
  },
  {
    "OBJECT_NAME": "STARLINK-33845",
    "OBJECT_ID": "2025-071C",
    "EPOCH": "2025-05-24T14:00:01.999872",
    "MEAN_MOTION": 15.39576286,
    "ECCENTRICITY": 0.0001042,
    "INCLINATION": 53.1601,
    "RA_OF_ASC_NODE": 46.2679,
    "ARG_OF_PERICENTER": 82.1389,
    "MEAN_ANOMALY": 58.7758,
    "EPHEMERIS_TYPE": 0,
    "CLASSIFICATION_TYPE": "U",
    "NORAD_CAT_ID": 63495,
    "ELEMENT_SET_NO": 999,
    "REV_AT_EPOCH": 603,
    "BSTAR": 0.0017149,
    "MEAN_MOTION_DOT": 0.00068716,
    "MEAN_MOTION_DDOT": 0
  },
  {
    "OBJECT_NAME": "STARLINK-33829",
    "OBJECT_ID": "2025-071D",
    "EPOCH": "2025-05-24T22:00:01.999584",
    "MEAN_MOTION": 15.39728939,
    "ECCENTRICITY": 9.11e-05,
    "INCLINATION": 53.1602,
    "RA_OF_ASC_NODE": 44.75,
    "ARG_OF_PERICENTER": 88.9556,
    "MEAN_ANOMALY": 74.7808,
    "EPHEMERIS_TYPE": 0,
    "CLASSIFICATION_TYPE": "U",
    "NORAD_CAT_ID": 63496,
    "ELEMENT_SET_NO": 999,
    "REV_AT_EPOCH": 844,
    "BSTAR": -0.004234,
    "MEAN_MOTION_DOT": -0.00166699,
    "MEAN_MOTION_DDOT": 0
  },
  {
    "OBJECT_NAME": "STARLINK-33815",
    "OBJECT_ID": "2025-071E",
    "EPOCH": "2025-05-24T14:00:01.999872",
    "MEAN_MOTION": 15.39597582,
    "ECCENTRICITY": 0.0001037,
    "INCLINATION": 53.1599,
    "RA_OF_ASC_NODE": 46.2168,
    "ARG_OF_PERICENTER": 99.6057,
    "MEAN_ANOMALY": 67.0683,
    "EPHEMERIS_TYPE": 0,
    "CLASSIFICATION_TYPE": "U",
    "NORAD_CAT_ID": 63497,
    "ELEMENT_SET_NO": 999,
    "REV_AT_EPOCH": 603,
    "BSTAR": 5.802e-05,
    "MEAN_MOTION_DOT": 1.921e-05,
    "MEAN_MOTION_DDOT": 0
  },
  {
    "OBJECT_NAME": "STARLINK-33833",
    "OBJECT_ID": "2025-071F",
    "EPOCH": "2025-05-24T00:29:22.404480",
    "MEAN_MOTION": 15.39634813,
    "ECCENTRICITY": 7.45e-05,
    "INCLINATION": 53.1612,
    "RA_OF_ASC_NODE": 48.7178,
    "ARG_OF_PERICENTER": 80.2332,
    "MEAN_ANOMALY": 279.8757,
    "EPHEMERIS_TYPE": 0,
    "CLASSIFICATION_TYPE": "U",
    "NORAD_CAT_ID": 63498,
    "ELEMENT_SET_NO": 999,
    "REV_AT_EPOCH": 837,
    "BSTAR": 8.5692e-05,
    "MEAN_MOTION_DOT": 3.032e-05,
    "MEAN_MOTION_DDOT": 0
  },
  {
    "OBJECT_NAME": "STARLINK-33534",
    "OBJECT_ID": "2025-071G",
    "EPOCH": "2025-05-24T03:42:33.027552",
    "MEAN_MOTION": 15.39616696,
    "ECCENTRICITY": 6.99e-05,
    "INCLINATION": 53.1629,
    "RA_OF_ASC_NODE": 48.1337,
    "ARG_OF_PERICENTER": 76.9216,
    "MEAN_ANOMALY": 283.1867,
    "EPHEMERIS_TYPE": 0,
    "CLASSIFICATION_TYPE": "U",
    "NORAD_CAT_ID": 63499,
    "ELEMENT_SET_NO": 999,
    "REV_AT_EPOCH": 837,
    "BSTAR": 3.141e-05,
    "MEAN_MOTION_DOT": 8.58e-06,
    "MEAN_MOTION_DDOT": 0
  },
  {
    "OBJECT_NAME": "STARLINK-33838",
    "OBJECT_ID": "2025-071H",
    "EPOCH": "2025-05-23T21:17:43.976256",
    "MEAN_MOTION": 15.37680083,
    "ECCENTRICITY": 0.000897,
    "INCLINATION": 53.1621,
    "RA_OF_ASC_NODE": 49.3079,
    "ARG_OF_PERICENTER": 77.5799,
    "MEAN_ANOMALY": 282.6208,
    "EPHEMERIS_TYPE": 0,
    "CLASSIFICATION_TYPE": "U",
    "NORAD_CAT_ID": 63500,
    "ELEMENT_SET_NO": 999,
    "REV_AT_EPOCH": 814,
    "BSTAR": -0.0066244,
    "MEAN_MOTION_DOT": -0.00241781,
    "MEAN_MOTION_DDOT": 0
  },
  {
    "OBJECT_NAME": "STARLINK-33837",
    "OBJECT_ID": "2025-071J",
    "EPOCH": "2025-05-24T03:49:14.181024",
    "MEAN_MOTION": 15.39624501,
    "ECCENTRICITY": 8.28e-05,
    "INCLINATION": 53.1609,
    "RA_OF_ASC_NODE": 48.1616,
    "ARG_OF_PERICENTER": 69.5118,
    "MEAN_ANOMALY": 290.5976,
    "EPHEMERIS_TYPE": 0,
    "CLASSIFICATION_TYPE": "U",
    "NORAD_CAT_ID": 63501,
    "ELEMENT_SET_NO": 999,
    "REV_AT_EPOCH": 833,
    "BSTAR": 5.9174e-05,
    "MEAN_MOTION_DOT": 1.969e-05,
    "MEAN_MOTION_DDOT": 0
  },
  {
    "OBJECT_NAME": "STARLINK-33818",
    "OBJECT_ID": "2025-071K",
    "EPOCH": "2025-05-24T00:28:53.949504",
    "MEAN_MOTION": 15.39636609,
    "ECCENTRICITY": 0.0001078,
    "INCLINATION": 53.1619,
    "RA_OF_ASC_NODE": 48.7117,
    "ARG_OF_PERICENTER": 63.453,
    "MEAN_ANOMALY": 296.6585,
    "EPHEMERIS_TYPE": 0,
    "CLASSIFICATION_TYPE": "U",
    "NORAD_CAT_ID": 63502,
    "ELEMENT_SET_NO": 999,
    "REV_AT_EPOCH": 837,
    "BSTAR": 8.8675e-05,
    "MEAN_MOTION_DOT": 3.151e-05,
    "MEAN_MOTION_DDOT": 0
  }
]